[{"OBJECT_NAME":"COSMOS 2529 (757)","OBJECT_ID":"2018-086A","EPOCH":"2026-03-14T09:22:44.095296","MEAN_MOTION":2.13102072,"ECCENTRICITY":0.00083391,"INCLINATION":64.295,"RA_OF_ASC_NODE":195.7923,"ARG_OF_PERICENTER":253.0754,"MEAN_ANOMALY":106.8154,"EPHEMERIS_TYPE":0,"CLASSIFICATION_TYPE":"U","NORAD_CAT_ID":43687,"ELEMENT_SET_NO":999,"REV_AT_EPOCH":5726,"BSTAR":0,"MEAN_MOTION_DOT":2.0e-8,"MEAN_MOTION_DDOT":0},{"OBJECT_NAME":"COSMOS 2534 (758)","OBJECT_ID":"2019-030A","EPOCH":"2026-03-14T07:36:08.100288","MEAN_MOTION":2.13102462,"ECCENTRICITY":0.00099565,"INCLINATION":64.3686,"RA_OF_ASC_NODE":195.8081,"ARG_OF_PERICENTER":279.3052,"MEAN_ANOMALY":158.2774,"EPHEMERIS_TYPE":0,"CLASSIFICATION_TYPE":"U","NORAD_CAT_ID":44299,"ELEMENT_SET_NO":999,"REV_AT_EPOCH":5290,"BSTAR":0,"MEAN_MOTION_DOT":2.0e-8,"MEAN_MOTION_DDOT":0},{"OBJECT_NAME":"COSMOS 2544 (759)","OBJECT_ID":"2019-088A","EPOCH":"2026-03-14T05:43:27.174144","MEAN_MOTION":2.13102157,"ECCENTRICITY":0.00158411,"INCLINATION":65.5118,"RA_OF_ASC_NODE":76.8981,"ARG_OF_PERICENTER":260.0496,"MEAN_ANOMALY":99.8111,"EPHEMERIS_TYPE":0,"CLASSIFICATION_TYPE":"U","NORAD_CAT_ID":44850,"ELEMENT_SET_NO":999,"REV_AT_EPOCH":4869,"BSTAR":0,"MEAN_MOTION_DOT":5.9e-7,"MEAN_MOTION_DDOT":0},{"OBJECT_NAME":"COSMOS 2545 (760)","OBJECT_ID":"2020-018A","EPOCH":"2026-03-14T10:25:02.161920","MEAN_MOTION":2.13102766,"ECCENTRICITY":0.00079436,"INCLINATION":64.4117,"RA_OF_ASC_NODE":315.7512,"ARG_OF_PERICENTER":249.5607,"MEAN_ANOMALY":110.4169,"EPHEMERIS_TYPE":0,"CLASSIFICATION_TYPE":"U","NORAD_CAT_ID":45358,"ELEMENT_SET_NO":999,"REV_AT_EPOCH":4664,"BSTAR":0,"MEAN_MOTION_DOT":-2.0e-7,"MEAN_MOTION_DDOT":0},{"OBJECT_NAME":"COSMOS 2547 (705K)","OBJECT_ID":"2020-075A","EPOCH":"2026-03-12T06:37:56.595072","MEAN_MOTION":2.13100396,"ECCENTRICITY":0.00070074,"INCLINATION":64.5993,"RA_OF_ASC_NODE":195.7069,"ARG_OF_PERICENTER":230.8854,"MEAN_ANOMALY":129.0383,"EPHEMERIS_TYPE":0,"CLASSIFICATION_TYPE":"U","NORAD_CAT_ID":46805,"ELEMENT_SET_NO":999,"REV_AT_EPOCH":4184,"BSTAR":0,"MEAN_MOTION_DOT":1.1e-7,"MEAN_MOTION_DDOT":0},{"OBJECT_NAME":"COSMOS 2557 (706K)","OBJECT_ID":"2022-075A","EPOCH":"2026-03-13T20:22:48.025344","MEAN_MOTION":2.13102035,"ECCENTRICITY":0.00113868,"INCLINATION":64.3539,"RA_OF_ASC_NODE":317.846,"ARG_OF_PERICENTER":283.8913,"MEAN_ANOMALY":76.0424,"EPHEMERIS_TYPE":0,"CLASSIFICATION_TYPE":"U","NORAD_CAT_ID":52984,"ELEMENT_SET_NO":999,"REV_AT_EPOCH":2868,"BSTAR":0,"MEAN_MOTION_DOT":-2.9e-7,"MEAN_MOTION_DDOT":0},{"OBJECT_NAME":"COSMOS 2559 (707K)","OBJECT_ID":"2022-130A","EPOCH":"2026-03-10T09:12:34.386912","MEAN_MOTION":2.13101391,"ECCENTRICITY":0.00106247,"INCLINATION":64.328,"RA_OF_ASC_NODE":318.0548,"ARG_OF_PERICENTER":180.6502,"MEAN_ANOMALY":179.4033,"EPHEMERIS_TYPE":0,"CLASSIFICATION_TYPE":"U","NORAD_CAT_ID":54031,"ELEMENT_SET_NO":999,"REV_AT_EPOCH":2658,"BSTAR":0,"MEAN_MOTION_DOT":-5.4e-7,"MEAN_MOTION_DDOT":0},{"OBJECT_NAME":"COSMOS 2564 (761)","OBJECT_ID":"2022-161A","EPOCH":"2026-03-13T12:17:21.575328","MEAN_MOTION":2.13101956,"ECCENTRICITY":0.00096749,"INCLINATION":64.7411,"RA_OF_ASC_NODE":195.8848,"ARG_OF_PERICENTER":211.591,"MEAN_ANOMALY":148.3349,"EPHEMERIS_TYPE":0,"CLASSIFICATION_TYPE":"U","NORAD_CAT_ID":54377,"ELEMENT_SET_NO":999,"REV_AT_EPOCH":2559,"BSTAR":0,"MEAN_MOTION_DOT":5.0e-8,"MEAN_MOTION_DDOT":0},{"OBJECT_NAME":"COSMOS 2569 (703K)","OBJECT_ID":"2023-114A","EPOCH":"2026-03-13T23:51:38.664000","MEAN_MOTION":2.13103986,"ECCENTRICITY":0.00129471,"INCLINATION":65.248,"RA_OF_ASC_NODE":75.8292,"ARG_OF_PERICENTER":292.2655,"MEAN_ANOMALY":67.635,"EPHEMERIS_TYPE":0,"CLASSIFICATION_TYPE":"U","NORAD_CAT_ID":57517,"ELEMENT_SET_NO":999,"REV_AT_EPOCH":2023,"BSTAR":0,"MEAN_MOTION_DOT":5.5e-7,"MEAN_MOTION_DDOT":0},{"OBJECT_NAME":"COSMOS 2584 (704K)","OBJECT_ID":"2025-042A","EPOCH":"2026-03-09T15:47:08.930400","MEAN_MOTION":2.13103483,"ECCENTRICITY":0.000776,"INCLINATION":65.0271,"RA_OF_ASC_NODE":76.1843,"ARG_OF_PERICENTER":237.191,"MEAN_ANOMALY":122.7645,"EPHEMERIS_TYPE":0,"CLASSIFICATION_TYPE":"U","NORAD_CAT_ID":63130,"ELEMENT_SET_NO":999,"REV_AT_EPOCH":792,"BSTAR":0,"MEAN_MOTION_DOT":1.3e-7,"MEAN_MOTION_DDOT":0},{"OBJECT_NAME":"COSMOS 2596 (708K)","OBJECT_ID":"2025-206B","EPOCH":"2026-03-12T01:39:06.219072","MEAN_MOTION":2.13100508,"ECCENTRICITY":0.0012773,"INCLINATION":64.6897,"RA_OF_ASC_NODE":318.3689,"ARG_OF_PERICENTER":316.3311,"MEAN_ANOMALY":210.7959,"EPHEMERIS_TYPE":0,"CLASSIFICATION_TYPE":"U","NORAD_CAT_ID":65590,"ELEMENT_SET_NO":999,"REV_AT_EPOCH":384,"BSTAR":0,"MEAN_MOTION_DOT":-4.3e-7,"MEAN_MOTION_DDOT":0}]
